AMC-1 (GE-1)            
1 24315U 96054A   23249.34364367 -.00000255  00000+0  00000+0 0  9996
2 24315   6.6764  69.2031 0006580 165.7693 211.3607  0.99510629 36148
AMC-3 (GE-3)            
1 24936U 97050A   23249.54870979 -.00000273  00000+0  00000+0 0  9995
2 24936   5.6378  75.1225 0002868  91.2065 304.5878  1.00271788 42267
ASTRA 1G                
1 25071U 97076A   23249.70692550 -.00000175  00000+0  00000+0 0  9990
2 25071   7.1434  63.7803 0010473 114.1379  64.4094  0.99040243 94320
ASTRA 2A                
1 25462U 98050A   23250.19285402  .00000056  00000+0  00000+0 0  9993
2 25462   4.5229  80.6803 0002994  88.4746 303.4797  1.00271583 91571
NSS-11 (AAP-1)          
1 26554U 00059A   23250.10674593  .00000014  00000+0  00000+0 0  9996
2 26554   0.0533 296.7549 0002780 231.1046  32.4824  1.00272260 84006
AMC-6 (GE-6)            
1 26580U 00067A   23249.67881719  .00000093  00000+0  00000+0 0  9991
2 26580   0.0517 297.8050 0002733 244.0282 269.0339  1.00271361 83727
ASTRA 2C                
1 26853U 01025A   23249.54870979 -.00000271  00000+0  00000+0 0  9990
2 26853   5.6601  74.9389 0002483  91.0511 304.4512  1.00272470 34872
NSS-7                   
1 27414U 02019A   23249.70248734 -.00000171  00000+0  00000+0 0  9993
2 27414   6.9421  67.4502 0002134 102.4679  48.5144  1.00272843 78384
NSS-6                   
1 27603U 02057A   23249.91716124 -.00000084  00000+0  00000+0 0  9994
2 27603   2.7414  86.7033 0002609 156.6108 170.0754  0.99122739 75861
AMC-11 (GE-11)          
1 28252U 04017A   23249.54357168 -.00000061  00000+0  00000+0 0  9996
2 28252   0.0546 300.1473 0001963 259.0409 230.7518  1.00271763 70530
AMC-15                  
1 28446U 04041A   23250.04386260 -.00000100  00000+0  00000+0 0  9994
2 28446   0.0544 300.8904 0002418 207.5227 108.1812  1.00272094 69172
NSS-10 (AMC-12)         
1 28526U 05003A   23249.48405197 -.00000263  00000+0  00000+0 0  9999
2 28526   3.8960  82.4458 0002876  71.9131 327.7665  1.00272946 68143
ASTRA 1KR               
1 29055U 06012A   23250.06857701  .00000109  00000+0  00000+0 0  9994
2 29055   0.0789 279.1805 0004408 281.4081 189.1607  1.00274235 63576
AMC-18                  
1 29644U 06054B   23249.54662125 -.00000227  00000+0  00000+0 0  9991
2 29644   0.0505 301.3767 0002298 230.2340 287.5434  1.00271215 61356
ASTRA 1L                
1 31306U 07016A   23250.06857701  .00000108  00000+0  00000+0 0  9990
2 31306   0.0899 300.1491 0002859 276.2595 173.3462  1.00274076 59871
ASTRA 4A (SIRIUS 4)     
1 32299U 07057A   23250.06570527  .00000021  00000+0  00000+0 0  9999
2 32299   0.0511 296.8470 0002785 243.0886 194.4082  1.00271193 57793
AMC-21                  
1 33275U 08038B   23249.68160191  .00000025  00000+0  00000+0 0  9996
2 33275   0.3179  95.3246 0003019  84.7697 285.8789  1.00272545 55323
ASTRA 1M                
1 33436U 08057A   23249.71031938  .00000108  00000+0  00000+0 0  9998
2 33436   0.0142 118.4789 0005013  40.3995 101.5348  1.00272060 35553
CIEL-2                  
1 33453U 08063A   23249.68081872  .00000047  00000+0  00000+0 0  9994
2 33453   0.1381  97.6200 0002812  71.9876 292.1384  1.00273311 53968
NSS-9                   
1 33749U 09008A   23249.64933199  .00000060  00000+0  00000+0 0  9991
2 33749   0.0518 303.8137 0002058 223.3928 235.0826  1.00271698 53346
SES-7 (PROTOSTAR 2)     
1 34941U 09027A   23249.85840888 -.00000357  00000+0  00000+0 0  9992
2 34941   0.0142  85.5469 0002271 140.4405 176.9697  1.00271404 52446
NSS-12                  
1 36032U 09058A   23249.90119005  .00000060  00000+0  00000+0 0  9995
2 36032   0.0521 295.4879 0002653 237.1760 194.4783  1.00272091 50744
SES-1                   
1 36516U 10016A   23249.61476854 -.00000126  00000+0  00000+0 0  9998
2 36516   0.0549 295.9307 0002346 247.2580 282.5690  1.00272088 48876
ASTRA 3B                
1 36581U 10021A   23249.71118959  .00000126  00000+0  00000+0 0  9995
2 36581   0.0542  26.1451 0003828 126.5885 112.3229  1.00273966 48704
SES-3                   
1 37748U 11035A   23249.63585610 -.00000113  00000+0  00000+0 0  9997
2 37748   0.0526 306.0359 0002756 209.0281 316.3059  1.00271020 44426
ASTRA 1N                
1 37775U 11041A   23249.71031938  .00000108  00000+0  00000+0 0  9995
2 37775   0.0541   4.4990 0002565  91.9410 163.9799  1.00271945 34357
SES-2                   
1 37809U 11049A   23249.83116291 -.00000207  00000+0  00000+0 0  9991
2 37809   0.0471 303.7999 0002716 233.1217  20.9575  1.00271846 43785
QUETZSAT 1              
1 37826U 11054A   23249.54783956 -.00000253  00000+0  00000+0 0  9993
2 37826   0.0501 301.0168 0002264 226.2125 298.3797  1.00272510 39710
SES-4                   
1 38087U 12007A   23249.91707067 -.00000180  00000+0  00000+0 0  9991
2 38087   0.0228  80.7916 0002427  88.9989 124.0882  1.00270497 42312
SES-5                   
1 38652U 12036A   23250.06579229  .00000022  00000+0  00000+0 0  9990
2 38652   0.0502 310.6396 0001904 219.9727 203.9268  1.00272248 40901
ASTRA 2F                
1 38778U 12051A   23250.07040449  .00000139  00000+0  00000+0 0  9993
2 38778   0.0919 256.9821 0004270 310.4034 192.0386  1.00275654 40121
SES-6                   
1 39172U 13026A   23249.69848431 -.00000272  00000+0  00000+0 0  9997
2 39172   0.0491 316.5433 0001917 221.9583  17.9732  1.00271567 37559
O3B FM5                 
1 39188U 13031A   23249.83288049 -.00000029  00000+0  00000+0 0  9999
2 39188   0.0399 346.0532 0002990 178.3671 195.5884  5.00115679186287
O3B FM4                 
1 39189U 13031B   23249.48877430 -.00000029  00000+0  00000+0 0  9999
2 39189   0.0560  14.1522 0002949 150.0664 195.7903  5.00116155186298
O3B FM2                 
1 39190U 13031C   23249.58069100 -.00000029  00000+0  00000+0 0  9999
2 39190   0.0591  18.0860 0002786 145.8709 196.0516  5.00115336186343
O3B PFM                 
1 39191U 13031D   23249.40664406 -.00000028  00000+0  00000+0 0  9990
2 39191   0.0451 356.0795 0002547 167.3735 196.5549  5.00116011185895
ASTRA 2E                
1 39285U 13056A   23249.71214685  .00000139  00000+0  00000+0 0  9997
2 39285   0.0660  31.8137 0002348 132.5925 105.9759  1.00273238 36267
SES-8                   
1 39460U 13071A   23250.08371896 -.00000281  00000+0  00000+0 0  9998
2 39460   0.0437 265.1965 0002100 236.8076 329.0247  1.00272363 35703
ASTRA 5B                
1 39617U 14011B   23250.06944725  .00000126  00000+0  00000+0 0  9999
2 39617   0.0896 298.8251 0003591 256.3767 199.1930  1.00275344 34702
O3B FM3                 
1 40079U 14038A   23249.46105429 -.00000028  00000+0  00000+0 0  9996
2 40079   0.0501   8.5887 0000435  97.0946 254.3211  5.00116702162280
O3B FM7                 
1 40080U 14038B   23249.80744081 -.00000029  00000+0  00000+0 0  9990
2 40080   0.0498  13.7795 0004426 146.9450 199.2919  5.00115651167134
O3B FM6                 
1 40081U 14038C   23249.63417413 -.00000029  00000+0  00000+0 0  9998
2 40081   0.0511   8.5796 0002625 154.3291 197.0998  5.00115249167067
O3B FM8                 
1 40082U 14038D   23249.68774667 -.00000029  00000+0  00000+0 0  9991
2 40082   0.0540  10.3141 0002558 156.2884 193.4038  5.00115958167195
O3B FM10                
1 40348U 14083A   23249.51431217 -.00000029  00000+0  00000+0 0  9999
2 40348   0.0499 358.4609 0002611 166.8815 194.6648  5.00115318159134
O3B FM11                
1 40349U 14083B   23249.52762054 -.00000028  00000+0  00000+0 0  9996
2 40349   0.0454   0.2337 0003210 157.6621 202.1176  5.00115542159157
O3B FM12                
1 40350U 14083C   23249.35500622 -.00000028  00000+0  00000+0 0  9990
2 40350   0.0462   0.9149 0002650 158.6183 200.4771  5.00115464159152
O3B FM9                 
1 40351U 14083D   23249.38146114 -.00000028  00000+0  00000+0 0  9996
2 40351   0.0442   0.2582 0002674 163.5565 196.1934  5.00115038159306
ASTRA 2G                
1 40364U 14089A   23250.07040449  .00000138  00000+0  00000+0 0  9999
2 40364   0.0454 339.4472 0002685 115.8323 304.1173  1.00271344 31856
SES-9                   
1 41380U 16013A   23249.85840889 -.00000357  00000+0  00000+0 0  9991
2 41380   0.0460 296.5973 0001578 195.2949 271.1100  1.00269125 27264
SES-10                  
1 42432U 17017A   23249.54984108 -.00000284  00000+0  00000+0 0  9993
2 42432   0.0201  81.7338 0002786  88.6305 306.0474  1.00269618 23577
SES-15                  
1 42709U 17026A   23249.68081872  .00000049  00000+0  00000+0 0  9999
2 42709   0.0258  46.2400 0000342 152.3561 262.8362  1.00269062 23973
SES-11 (ECHOSTAR 105)   
1 42967U 17063A   23249.68534389 -.00000101  00000+0  00000+0 0  9992
2 42967   0.0402 305.1379 0002521 255.8312 286.3173  1.00272833 21559
SES-14                  
1 43175U 18012B   23249.69700492 -.00000290  00000+0  00000+0 0  9999
2 43175   0.0131 250.6939 0001059 283.3529  14.8900  1.00270946 20898
O3B FM15                
1 43231U 18024A   23249.64741386 -.00000029  00000+0  00000+0 0  9997
2 43231   0.0530 356.8556 0002706 163.7584 199.3958  5.00114505100264
O3B FM16                
1 43232U 18024B   23249.50069941 -.00000028  00000+0  00000+0 0  9992
2 43232   0.0563 354.3789 0002750 166.3377 199.2934  5.00116251100184
O3B FM14                
1 43233U 18024C   23247.94160793 -.00000026  00000+0  00000+0 0  9994
2 43233   0.0579 354.2677 0002936 164.9783 200.7655  5.00115698100113
O3B FM13                
1 43234U 18024D   23249.59441627 -.00000029  00000+0  00000+0 0  9999
2 43234   0.0435 358.8334 0002632 146.9249 214.2582  5.00115685100312
SES-12                  
1 43488U 18049A   23249.69389218 -.00000281  00000+0  00000+0 0  9995
2 43488   0.0184  68.7734 0001917 168.0460  93.4863  1.00270914 19243
O3B FM20                
1 44112U 19020A   23249.36752296 -.00000028  00000+0  00000+0 0  9993
2 44112   0.0503 359.1150 0002921 154.2569 206.6427  5.00115729 80805
O3B FM19                
1 44113U 19020B   23249.59441244 -.00000029  00000+0  00000+0 0  9998
2 44113   0.0289 352.2413 0004166 175.9687 191.7994  5.00115602 80675
O3B FM17                
1 44114U 19020C   23249.67457070 -.00000029  00000+0  00000+0 0  9992
2 44114   0.0688   5.5707 0002697 153.1974 201.2426  5.00116021 80771
O3B FM18                
1 44115U 19020D   23248.82144595 -.00000027  00000+0  00000+0 0  9992
2 44115   0.0499 358.8640 0002695 163.2482 197.8969  5.00116033 80850
SES-17                  
1 49332U 21095A   23249.90810735 -.00000284  00000+0  00000+0 0  9994
2 49332   0.0184 129.2000 0001062  47.5813  68.7637  1.00269411  7667
SES-22                  
1 52933U 22071A   23249.67960039  .00000077  00000+0  00000+0 0  9996
2 52933   0.0193 139.4886 0001132  37.5014 278.1492  1.00272415  4361
SES-20                  
1 53960U 22123A   23249.90098442 -.00000113  00000+0  00000+0 0  9993
2 53960   0.0164 166.6742 0001692 300.8252  99.4735  1.00271448  3362
SES-21                  
1 53961U 22123B   23250.07577597  .00000058  00000+0  00000+0 0  9994
2 53961   0.0161  91.3806 0001045  66.9153  83.8915  1.00270515  3379
O3B MPOWER F1           
1 54755U 22174A   23249.80283564 -.00000029  00000+0  00000+0 0  9998
2 54755   0.0448  15.6950 0004693 164.0150   8.5869  5.00118489 14613
O3B MPOWER F2           
1 54756U 22174B   23249.40959456 -.00000028  00000+0  00000+0 0  9994
2 54756   0.0469  17.1291 0006161 203.7836 139.0408  5.00113820 14664
SES-18                  
1 55970U 23038A   23249.54261819 -.00000112  00000+0  00000+0 0  9991
2 55970   0.0489 266.9280 0001997 315.4555 215.2335  1.00270969  1923
SES-19                  
1 55971U 23038B   23249.67968743  .00000077  00000+0  00000+0 0  9995
2 55971   0.0492 288.2110 0001624 233.8818 293.1765  1.00271047  1895
O3B MPOWER F4           
1 56367U 23059A   23249.53064562 -.00000029  00000+0  00000+0 0  9997
2 56367   0.0392 353.4170 0006119 187.0713 179.5108  5.00115561  7844
O3B MPOWER F3           
1 56368U 23059B   23249.83061257 -.00000029  00000+0  00000+0 0  9999
2 56368   0.0396 350.0179 0002344 193.8080 176.1718  5.00115152  3986
